[{"OBJECT_NAME":"STARLINK-4355","OBJECT_ID":"2022-077F","EPOCH":"2026-03-09T12:26:42.033120","MEAN_MOTION":15.05643548,"ECCENTRICITY":0.00014098,"INCLINATION":97.603,"RA_OF_ASC_NODE":251.082,"ARG_OF_PERICENTER":87.056,"MEAN_ANOMALY":273.0828,"EPHEMERIS_TYPE":0,"CLASSIFICATION_TYPE":"U","NORAD_CAT_ID":53048,"ELEMENT_SET_NO":999,"REV_AT_EPOCH":20095,"BSTAR":1.3313083e-5,"MEAN_MOTION_DOT":1.31e-6,"MEAN_MOTION_DDOT":0},{"OBJECT_NAME":"FENGYUN 1C DEB","OBJECT_ID":"1999-025DNE","EPOCH":"2026-03-03T04:32:20.578848","MEAN_MOTION":15.05751159,"ECCENTRICITY":0.01321557,"INCLINATION":98.9662,"RA_OF_ASC_NODE":53.9178,"ARG_OF_PERICENTER":282.0758,"MEAN_ANOMALY":76.5683,"EPHEMERIS_TYPE":0,"CLASSIFICATION_TYPE":"U","NORAD_CAT_ID":35174,"ELEMENT_SET_NO":999,"REV_AT_EPOCH":91373,"BSTAR":0.0030573957,"MEAN_MOTION_DOT":0.00054187,"MEAN_MOTION_DDOT":0}]
